start=new Date('2022-03-22T00:00:00.000Z').valueOf();
sats=[{"NORAD_CAT_ID":"51814","ECCENTRICITY":"0.00009090","MEAN_MOTION_DOT":"0.00028516","TIME_SYSTEM":"UTC","TLE_LINE2":"2 51814  53.2181  23.4320 0000909  91.1085 301.4058 15.73160787  3691","OBJECT_NAME":"STARLINK-3599","CLASSIFICATION_TYPE":"U","DECAY_DATE":null,"BSTAR":"0.00020725000000","OBJECT_TYPE":"PAYLOAD","GP_ID":"199351664","PERIOD":"91.535","MEAN_ANOMALY":"301.4058","MEAN_MOTION_DDOT":"0.0000000000000","OBJECT_ID":"2022-017AY","LAUNCH_DATE":"2022-02-25","EPHEMERIS_TYPE":"0","SITE":"AFWTR","FILE":"3368836","EPOCH":"2022-03-21T22:00:00.999936","SEMIMAJOR_AXIS":"6728.007","RCS_SIZE":"LARGE","COUNTRY_CODE":"US","RA_OF_ASC_NODE":"23.4320","MEAN_MOTION":"15.73160787","MEAN_ELEMENT_THEORY":"SGP4","REF_FRAME":"TEME","REV_AT_EPOCH":"369","ELEMENT_SET_NO":"999","INCLINATION":"53.2181","CENTER_NAME":"EARTH","ARG_OF_PERICENTER":"91.1085","TLE_LINE1":"1 51814U 22017AY  22080.91667824  .00028516  00000-0  20725-3 0  9997","PERIAPSIS":"349.260","APOAPSIS":"350.484"},{"BSTAR":"-0.00018863000000","DECAY_DATE":null,"OBJECT_TYPE":"PAYLOAD","CLASSIFICATION_TYPE":"U","OBJECT_NAME":"STARLINK-3604","TLE_LINE2":"2 51815  53.2185  23.4320 0001107  73.1370 318.7008 15.73166806  3698","MEAN_MOTION_DOT":"-0.00026969","TIME_SYSTEM":"UTC","NORAD_CAT_ID":"51815","ECCENTRICITY":"0.00011070","FILE":"3368836","EPHEMERIS_TYPE":"0","SITE":"AFWTR","OBJECT_ID":"2022-017AZ","LAUNCH_DATE":"2022-02-25","MEAN_ANOMALY":"318.7008","MEAN_MOTION_DDOT":"0.0000000000000","GP_ID":"199351225","PERIOD":"91.535","INCLINATION":"53.2185","ELEMENT_SET_NO":"999","REV_AT_EPOCH":"369","REF_FRAME":"TEME","MEAN_ELEMENT_THEORY":"SGP4","MEAN_MOTION":"15.73166806","RA_OF_ASC_NODE":"23.4320","SEMIMAJOR_AXIS":"6727.990","COUNTRY_CODE":"US","RCS_SIZE":"LARGE","EPOCH":"2022-03-21T22:00:00.999936","PERIAPSIS":"349.110","APOAPSIS":"350.600","TLE_LINE1":"1 51815U 22017AZ  22080.91667824 -.00026969  00000-0 -18863-3 0  9990","ARG_OF_PERICENTER":"73.1370","CENTER_NAME":"EARTH"},{"RA_OF_ASC_NODE":"23.4305","MEAN_MOTION":"15.73205771","EPOCH":"2022-03-21T22:00:00.999936","COUNTRY_CODE":"US","RCS_SIZE":"LARGE","SEMIMAJOR_AXIS":"6727.879","INCLINATION":"53.2192","REF_FRAME":"TEME","MEAN_ELEMENT_THEORY":"SGP4","REV_AT_EPOCH":"369","ELEMENT_SET_NO":"999","ARG_OF_PERICENTER":"89.9243","CENTER_NAME":"EARTH","TLE_LINE1":"1 51816U 22017BA  22080.91667824 -.00016526  00000-0 -11353-3 0  9996","APOAPSIS":"350.640","PERIAPSIS":"348.848","TLE_LINE2":"2 51816  53.2192  23.4305 0001332  89.9243 303.1618 15.73205771  3694","ECCENTRICITY":"0.00013320","NORAD_CAT_ID":"51816","TIME_SYSTEM":"UTC","MEAN_MOTION_DOT":"-0.00016526","CLASSIFICATION_TYPE":"U","OBJECT_TYPE":"PAYLOAD","BSTAR":"-0.00011353000000","DECAY_DATE":null,"OBJECT_NAME":"STARLINK-3603","LAUNCH_DATE":"2022-02-25","OBJECT_ID":"2022-017BA","SITE":"AFWTR","EPHEMERIS_TYPE":"0","PERIOD":"91.533","GP_ID":"199351775","MEAN_MOTION_DDOT":"0.0000000000000","MEAN_ANOMALY":"303.1618","FILE":"3368836"},{"FILE":"3368434","EPHEMERIS_TYPE":"0","SITE":"AFWTR","LAUNCH_DATE":"2022-02-25","OBJECT_ID":"2022-017BB","MEAN_ANOMALY":"87.3770","MEAN_MOTION_DDOT":"0.0000000000000","GP_ID":"199291305","PERIOD":"90.814","DECAY_DATE":null,"BSTAR":"-0.00026063000000","OBJECT_TYPE":"PAYLOAD","CLASSIFICATION_TYPE":"U","OBJECT_NAME":"STARLINK-3596","TLE_LINE2":"2 51817  53.2228  22.0867 0006712 272.6487  87.3770 15.85657118  5063","MEAN_MOTION_DOT":"-0.00064911","TIME_SYSTEM":"UTC","NORAD_CAT_ID":"51817","ECCENTRICITY":"0.00067120","PERIAPSIS":"309.985","APOAPSIS":"318.969","TLE_LINE1":"1 51817U 22017BB  22080.81443631 -.00064911  00000-0 -26063-3 0  9999","ARG_OF_PERICENTER":"272.6487","CENTER_NAME":"EARTH","INCLINATION":"53.2228","REV_AT_EPOCH":"506","ELEMENT_SET_NO":"999","REF_FRAME":"TEME","MEAN_ELEMENT_THEORY":"SGP4","RA_OF_ASC_NODE":"22.0867","MEAN_MOTION":"15.85657118","SEMIMAJOR_AXIS":"6692.612","COUNTRY_CODE":"US","RCS_SIZE":"LARGE","EPOCH":"2022-03-21T19:32:47.297184"},{"MEAN_ELEMENT_THEORY":"SGP4","REF_FRAME":"TEME","ELEMENT_SET_NO":"999","REV_AT_EPOCH":"414","INCLINATION":"53.2195","EPOCH":"2022-03-21T22:00:00.999936","SEMIMAJOR_AXIS":"6728.065","RCS_SIZE":"LARGE","COUNTRY_CODE":"US","RA_OF_ASC_NODE":"53.5530","MEAN_MOTION":"15.73140599","TLE_LINE1":"1 51852U 22022A   22080.91667824  .00068054  00000-0  48662-3 0  9996","PERIAPSIS":"349.221","APOAPSIS":"350.638","CENTER_NAME":"EARTH","ARG_OF_PERICENTER":"69.7806","OBJECT_NAME":"STARLINK-3542","CLASSIFICATION_TYPE":"U","BSTAR":"0.00048662000000","DECAY_DATE":null,"OBJECT_TYPE":"PAYLOAD","NORAD_CAT_ID":"51852","ECCENTRICITY":"0.00010530","MEAN_MOTION_DOT":"0.00068054","TIME_SYSTEM":"UTC","TLE_LINE2":"2 51852  53.2195  53.5530 0001053  69.7806  55.3351 15.73140599  4149","FILE":"3368700","GP_ID":"199297545","PERIOD":"91.537","MEAN_ANOMALY":"55.3351","MEAN_MOTION_DDOT":"0.0000000000000","LAUNCH_DATE":"2022-03-03","OBJECT_ID":"2022-022A","EPHEMERIS_TYPE":"0","SITE":"AFETR"},{"TLE_LINE1":"1 51853U 22022B   22080.91667824  .00071140  00000-0  50806-3 0  9990","PERIAPSIS":"348.974","APOAPSIS":"350.823","ARG_OF_PERICENTER":"72.2805","CENTER_NAME":"EARTH","INCLINATION":"53.2200","MEAN_ELEMENT_THEORY":"SGP4","REF_FRAME":"TEME","REV_AT_EPOCH":"409","ELEMENT_SET_NO":"999","MEAN_MOTION":"15.73151403","RA_OF_ASC_NODE":"53.5560","EPOCH":"2022-03-21T22:00:00.999936","SEMIMAJOR_AXIS":"6728.034","RCS_SIZE":"LARGE","COUNTRY_CODE":"US","FILE":"3368700","OBJECT_ID":"2022-022B","LAUNCH_DATE":"2022-03-03","EPHEMERIS_TYPE":"0","SITE":"AFETR","GP_ID":"199297037","PERIOD":"91.536","MEAN_ANOMALY":"52.2149","MEAN_MOTION_DDOT":"0.0000000000000","CLASSIFICATION_TYPE":"U","BSTAR":"0.00050806000000","DECAY_DATE":null,"OBJECT_TYPE":"PAYLOAD","OBJECT_NAME":"STARLINK-3539","TLE_LINE2":"2 51853  53.2200  53.5560 0001374  72.2805  52.2149 15.73151403  4095","NORAD_CAT_ID":"51853","ECCENTRICITY":"0.00013740","MEAN_MOTION_DOT":"0.00071140","TIME_SYSTEM":"UTC"},{"RA_OF_ASC_NODE":"53.5519","MEAN_MOTION":"15.73123480","SEMIMAJOR_AXIS":"6728.113","COUNTRY_CODE":"US","RCS_SIZE":"LARGE","EPOCH":"2022-03-21T22:00:00.999936","INCLINATION":"53.2195","REV_AT_EPOCH":"414","ELEMENT_SET_NO":"999","REF_FRAME":"TEME","MEAN_ELEMENT_THEORY":"SGP4","ARG_OF_PERICENTER":"81.6368","CENTER_NAME":"EARTH","PERIAPSIS":"349.352","APOAPSIS":"350.605","TLE_LINE1":"1 51854U 22022C   22080.91667824  .00070031  00000-0  50088-3 0  9991","TLE_LINE2":"2 51854  53.2195  53.5519 0000931  81.6368  44.1272 15.73123480  4146","MEAN_MOTION_DOT":"0.00070031","TIME_SYSTEM":"UTC","NORAD_CAT_ID":"51854","ECCENTRICITY":"0.00009310","DECAY_DATE":null,"BSTAR":"0.00050088000000","OBJECT_TYPE":"PAYLOAD","CLASSIFICATION_TYPE":"U","OBJECT_NAME":"STARLINK-3541","EPHEMERIS_TYPE":"0","SITE":"AFETR","OBJECT_ID":"2022-022C","LAUNCH_DATE":"2022-03-03","MEAN_ANOMALY":"44.1272","MEAN_MOTION_DDOT":"0.0000000000000","GP_ID":"199298705","PERIOD":"91.538","FILE":"3368742"},{"OBJECT_NAME":"STARLINK-3545","CLASSIFICATION_TYPE":"U","BSTAR":"0.00048911000000","DECAY_DATE":null,"OBJECT_TYPE":"PAYLOAD","NORAD_CAT_ID":"51855","ECCENTRICITY":"0.00010500","MEAN_MOTION_DOT":"0.00068416","TIME_SYSTEM":"UTC","TLE_LINE2":"2 51855  53.2198  53.5508 0001050  69.1139  57.9079 15.73143071  3535","FILE":"3368836","GP_ID":"199351669","PERIOD":"91.536","MEAN_ANOMALY":"57.9079","MEAN_MOTION_DDOT":"0.0000000000000","LAUNCH_DATE":"2022-03-03","OBJECT_ID":"2022-022D","EPHEMERIS_TYPE":"0","SITE":"AFETR","REF_FRAME":"TEME","MEAN_ELEMENT_THEORY":"SGP4","REV_AT_EPOCH":"353","ELEMENT_SET_NO":"999","INCLINATION":"53.2198","EPOCH":"2022-03-21T22:00:00.999936","SEMIMAJOR_AXIS":"6728.057","RCS_SIZE":"LARGE","COUNTRY_CODE":"US","RA_OF_ASC_NODE":"53.5508","MEAN_MOTION":"15.73143071","TLE_LINE1":"1 51855U 22022D   22080.91667824  .00068416  00000-0  48911-3 0  9998","PERIAPSIS":"349.216","APOAPSIS":"350.629","CENTER_NAME":"EARTH","ARG_OF_PERICENTER":"69.1139"},{"FILE":"3368836","OBJECT_ID":"2022-022E","LAUNCH_DATE":"2022-03-03","SITE":"AFETR","EPHEMERIS_TYPE":"0","PERIOD":"91.536","GP_ID":"199351230","MEAN_MOTION_DDOT":"0.0000000000000","MEAN_ANOMALY":"56.8212","CLASSIFICATION_TYPE":"U","OBJECT_TYPE":"PAYLOAD","BSTAR":"0.00015388000000","DECAY_DATE":null,"OBJECT_NAME":"STARLINK-3568","TLE_LINE2":"2 51856  53.2197  53.5510 0000881  69.5931  56.8212 15.73150934  3536","ECCENTRICITY":"0.00008810","NORAD_CAT_ID":"51856","TIME_SYSTEM":"UTC","MEAN_MOTION_DOT":"0.00020985","TLE_LINE1":"1 51856U 22022E   22080.91667824  .00020985  00000-0  15388-3 0  9990","APOAPSIS":"350.493","PERIAPSIS":"349.307","ARG_OF_PERICENTER":"69.5931","CENTER_NAME":"EARTH","INCLINATION":"53.2197","MEAN_ELEMENT_THEORY":"SGP4","REF_FRAME":"TEME","REV_AT_EPOCH":"353","ELEMENT_SET_NO":"999","MEAN_MOTION":"15.73150934","RA_OF_ASC_NODE":"53.5510","EPOCH":"2022-03-21T22:00:00.999936","COUNTRY_CODE":"US","RCS_SIZE":"MEDIUM","SEMIMAJOR_AXIS":"6728.035"},{"CENTER_NAME":"EARTH","ARG_OF_PERICENTER":"65.2867","TLE_LINE1":"1 51857U 22022F   22080.91667824  .00028526  00000-0  20759-3 0  9998","APOAPSIS":"350.616","PERIAPSIS":"349.305","EPOCH":"2022-03-21T22:00:00.999936","RCS_SIZE":"LARGE","COUNTRY_CODE":"US","SEMIMAJOR_AXIS":"6728.095","RA_OF_ASC_NODE":"53.5481","MEAN_MOTION":"15.73129841","REF_FRAME":"TEME","MEAN_ELEMENT_THEORY":"SGP4","ELEMENT_SET_NO":"999","REV_AT_EPOCH":"353","INCLINATION":"53.2195","PERIOD":"91.537","GP_ID":"199351780","MEAN_MOTION_DDOT":"0.0000000000000","MEAN_ANOMALY":"63.0539","LAUNCH_DATE":"2022-03-03","OBJECT_ID":"2022-022F","SITE":"AFETR","EPHEMERIS_TYPE":"0","FILE":"3368836","ECCENTRICITY":"0.00009740","NORAD_CAT_ID":"51857","TIME_SYSTEM":"UTC","MEAN_MOTION_DOT":"0.00028526","TLE_LINE2":"2 51857  53.2195  53.5481 0000974  65.2867  63.0539 15.73129841  3531","OBJECT_NAME":"STARLINK-3571","CLASSIFICATION_TYPE":"U","OBJECT_TYPE":"PAYLOAD","BSTAR":"0.00020759000000","DECAY_DATE":null}];
